[{"OBJECT_NAME":"SITRO-AIS 17","OBJECT_ID":"2024-199BG","EPOCH":"2026-03-09T22:41:43.974240","MEAN_MOTION":14.97395626,"ECCENTRICITY":0.0007298,"INCLINATION":97.3319,"RA_OF_ASC_NODE":274.6922,"ARG_OF_PERICENTER":55.1829,"MEAN_ANOMALY":305.008,"EPHEMERIS_TYPE":0,"CLASSIFICATION_TYPE":"U","NORAD_CAT_ID":61789,"ELEMENT_SET_NO":999,"REV_AT_EPOCH":11718,"BSTAR":0.00028776531,"MEAN_MOTION_DOT":3.293e-5,"MEAN_MOTION_DDOT":0},{"OBJECT_NAME":"STARLINK-36189","OBJECT_ID":"2025-293H","EPOCH":"2026-03-09T11:58:18.945696","MEAN_MOTION":14.98332853,"ECCENTRICITY":0.00031517,"INCLINATION":70.0008,"RA_OF_ASC_NODE":94.761,"ARG_OF_PERICENTER":268.6465,"MEAN_ANOMALY":91.4333,"EPHEMERIS_TYPE":0,"CLASSIFICATION_TYPE":"U","NORAD_CAT_ID":67010,"ELEMENT_SET_NO":999,"REV_AT_EPOCH":1486,"BSTAR":0.00033521818,"MEAN_MOTION_DOT":3.909e-5,"MEAN_MOTION_DDOT":0}]
